const data = [
"1 11158U 78118A   22075.84527855  .00000027  00000+0  00000+0 0  9998",
"2 11158  11.1433 209.3021 3504465 275.9276  45.8958  1.00276947107365",
"1 11440U 79062A   22076.64894584 -.00000035  00000+0  00000+0 0  9996",
"2 11440   9.4993 302.9296 0001530 353.1362 181.4585  1.00240001122453",
"1 11648U 79105A   22076.80589243  .00000133  00000+0  00000+0 0  9993",
"2 11648   9.6541 304.3305 0011832 204.1897 356.5542  1.00264023106916",
"1 11841U 80049A   22076.58852431 -.00000256  00000+0  00000+0 0  9991",
"2 11841  10.7949 309.9494 0001964  46.4263 181.1891  0.98631856218208",
"1 13092U 82020A   22077.26054817  .00000008  00000+0  00000+0 0  9994",
"2 13092  11.7663 315.1645 0032607 207.3558   5.1630  0.98530440106290",
"1 13624U 82103A   22076.43778400  .00000113  00000+0  00000+0 0  9993",
"2 13624  10.6810 315.1811 0001556 122.9560  96.4229  1.00215242105371",
"1 14160U 83066A   22077.00589284 -.00000181  00000+0  00000+0 0  9998",
"2 14160  12.3051 324.3371 0009705 325.8491 209.9679  0.98349117139526",
"1 14532U 83118A   22077.19756295 -.00000005  00000+0  00000+0 0  9992",
"2 14532  12.4687 326.1559 0029703 142.8859  28.3430  0.98268568105282",
"1 14940U 84041A   22077.10436212 -.00000287  00000+0  00000+0 0  9998",
"2 14940  11.6657 324.2497 0003227 199.0921 146.1151  1.00284619106469",
"1 15144U 84078A   22076.58391229 -.00000122  00000+0  00000+0 0  9992",
"2 15144  11.7542 325.2672 0001856  64.8615 256.1583  1.00165944139007",
"1 15484U 85007A   22076.87453876  .00000127  00000+0  00000+0 0  9995",
"2 15484  11.9235 327.2203 0003403 113.6044  73.2955  1.00343887137054",
"1 16769U 86044A   22076.67541407 -.00000334  00000+0  00000+0 0  9991",
"2 16769  12.5121 332.5351 0000909  39.9223 151.0427  1.00237051131690",
"1 17083U 86090A   22076.40129316 -.00000072  00000+0  00000+0 0  9993",
"2 17083  14.3495 339.5998 0014823 344.3375 229.5334  0.96725657103627",
"1 17969U 87040A   22076.58660567 -.00000152  00000+0  00000+0 0  9998",
"2 17969  13.3501 331.1011 0030022 166.7776  21.4309  0.97659657104697",
"1 19017U 88028A   22076.59872073 -.00000189  00000+0  00000+0 0  9999",
"2 19017  14.6143 342.4767 0035711 148.9993  65.7937  0.97830104104297",
"1 19397U 88071A   22076.67349528 -.00000220  00000+0  00000+0 0  9997",
"2 19397  13.4695 341.1720 0016323  54.4921 117.1781  0.99966443122705",
"1 19765U 89004A   22076.58660567 -.00000288  00000+0  00000+0 0  9996",
"2 19765  13.9937 344.4809 0022868 122.4130  55.9080  0.99068309120186",
"1 20107U 89052A   22076.18151990 -.00000272  00000+0  00000+0 0  9995",
"2 20107  14.0273 345.7528 0034170 317.3264 262.6982  0.99403719118977",
"1 20263U 89081A   22076.38243983  .00000133  00000+0  00000+0 0  9991",
"2 20263  13.7595 344.9668 0000536 173.8467 188.9192  1.00263329 31777",
"1 20659U 90054A   22076.75674497 -.00000167  00000+0  00000+0 0  9999",
"2 20659  14.1773 347.8038 0005669 151.0713  29.5294  1.00320799116116",
"1 20923U 90094A   22076.47674859  .00000109  00000+0  00000+0 0  9993",
"2 20923  14.1828 348.5788 0002437 193.3706  12.7054  1.00353473114876",
"1 20953U 90102A   22073.74459861 -.00000370  00000+0  00000+0 0  9998",
"2 20953  14.1433 348.9656 0004282  22.4794 185.6912  1.00352215114773",
"1 21533U 91046A   22075.91462175  .00000043  00000+0  00000+0 0  9990",
"2 21533  14.8698 353.0494 0004788 340.1945 224.0494  0.98906776 31329",
"1 21759U 91074A   22075.96988795 -.00000024  00000+0  00000+0 0  9997",
"2 21759  15.0093 354.9257 0015761 222.2337 353.5318  0.98442479109667",
"1 21922U 92017A   22076.33043601 -.00000091  00000+0  00000+0 0  9991",
"2 21922  14.5549 354.2919 0030118  74.6368 127.0952  0.99843651109434",
"1 22041U 92043A   22071.65752535 -.00000308  00000+0  00000+0 0  9997",
"2 22041  14.7121 356.2984 0028499 232.9269 311.6898  0.99245480108016",
"1 22245U 92082A   22076.51038809 -.00000307  00000+0  00000+0 0  9996",
"2 22245  14.6301 355.9033 0014121   8.4214 133.4805  1.00205935111561",
"1 22880U 93069A   22076.51058319  .00000085  00000+0  00000+0 0  9997",
"2 22880  14.7380 359.7267 0033652 124.2516 101.7856  0.99650050103651",
"1 22907U 93072A   22076.81452703 -.00000145  00000+0  00000+0 0  9997",
"2 22907  14.6529 359.2046 0011809 349.5213 202.9589  1.00110443103625",
"1 23108U 94030A   22075.71194235 -.00000368  00000+0  00000+0 0  9994",
"2 23108  14.6609   0.1390 0001347  58.1157 132.9978  1.00349289101880",
"1 23775U 96005A   22076.72975823 -.00000307  00000+0  00000+0 0  9993",
"2 23775  14.5185   6.2774 0016802 196.1216 344.7707  0.99888029 95547",
"1 23880U 96034A   22076.31743881 -.00000261  00000+0  00000+0 0  9993",
"2 23880  14.4624   6.8066 0009764 355.5438 213.9720  1.00156064 94470",
"1 26372U 00029A   22077.24804600 -.00000272  00000+0  00000+0 0  9993",
"2 26372  13.0854  17.8564 0004221  55.2008 117.4891  1.00374191 79859",
];

export default data;
